0 OPS 5112 (NAVSTAR 2)
1 10893U 78047A   13281.77706957  .00000017  00000-0  00000+0 0   482
2 10893 063.7072 060.4167 0413158 047.3766 249.7192 02.01626330260282
0 OPS 5112 (NAVSTAR 2)
1 10893U 78047A   13288.35716911 -.00000019  00000-0  00000+0 0   500
2 10893 063.7104 060.2069 0413414 047.3578 345.9349 02.01626464260419
0 OPS 5112 (NAVSTAR 2)
1 10893U 78047A   13291.81205097 -.00000044  00000-0  00000+0 0   512
2 10893 063.7122 060.0970 0413540 047.3545 333.6839 02.01626391260486
0 OPS 5112 (NAVSTAR 2)
1 10893U 78047A   13294.62674399 -.00000030  00000-0  00000+0 0   525
2 10893 063.7137 060.0075 0413610 047.3471 216.7531 02.01626237260540
